CCSDS_OMM_VERS = 2.0
CREATION_DATE  = 
ORIGINATOR     = 

OBJECT_NAME    = SL-3 R/B
OBJECT_ID      = 1988-032B
CENTER_NAME    = EARTH
REF_FRAME      = TEME
TIME_SYSTEM    = UTC
MEAN_ELEMENT_THEORY = SGP/SGP4

EPOCH          = 2026-03-19T20:53:58.593984
MEAN_MOTION    = 15.20018895
ECCENTRICITY   = .0025328
INCLINATION    = 97.5205
RA_OF_ASC_NODE = 62.0869
ARG_OF_PERICENTER = 194.5600
MEAN_ANOMALY   = 165.4908

EPHEMERIS_TYPE = 0
CLASSIFICATION_TYPE = U
NORAD_CAT_ID   = 19046
ELEMENT_SET_NO = 999
REV_AT_EPOCH   = 5365
BSTAR          = .20015E-3
MEAN_MOTION_DOT = .4278E-4
MEAN_MOTION_DDOT = 0

CCSDS_OMM_VERS = 2.0
CREATION_DATE  = 
ORIGINATOR     = 

OBJECT_NAME    = SL-16 R/B
OBJECT_ID      = 1988-039B
CENTER_NAME    = EARTH
REF_FRAME      = TEME
TIME_SYSTEM    = UTC
MEAN_ELEMENT_THEORY = SGP/SGP4

EPOCH          = 2026-03-19T15:12:30.321792
MEAN_MOTION    = 14.19617809
ECCENTRICITY   = .0023259
INCLINATION    = 71.0150
RA_OF_ASC_NODE = 47.5192
ARG_OF_PERICENTER = 319.9974
MEAN_ANOMALY   = 39.9436

EPHEMERIS_TYPE = 0
CLASSIFICATION_TYPE = U
NORAD_CAT_ID   = 19120
ELEMENT_SET_NO = 999
REV_AT_EPOCH   = 95979
BSTAR          = -.15717E-4
MEAN_MOTION_DOT = -.82E-6
MEAN_MOTION_DDOT = 0

CCSDS_OMM_VERS = 2.0
CREATION_DATE  = 
ORIGINATOR     = 

OBJECT_NAME    = COSMOS 1953
OBJECT_ID      = 1988-050A
CENTER_NAME    = EARTH
REF_FRAME      = TEME
TIME_SYSTEM    = UTC
MEAN_ELEMENT_THEORY = SGP/SGP4

EPOCH          = 2026-03-19T15:23:15.442944
MEAN_MOTION    = 15.28679655
ECCENTRICITY   = .0012678
INCLINATION    = 82.5091
RA_OF_ASC_NODE = 148.2386
ARG_OF_PERICENTER = 91.4280
MEAN_ANOMALY   = 268.8412

EPHEMERIS_TYPE = 0
CLASSIFICATION_TYPE = U
NORAD_CAT_ID   = 19210
ELEMENT_SET_NO = 999
REV_AT_EPOCH   = 3930
BSTAR          = .1935E-3
MEAN_MOTION_DOT = .544E-4
MEAN_MOTION_DDOT = 0

CCSDS_OMM_VERS = 2.0
CREATION_DATE  = 
ORIGINATOR     = 

OBJECT_NAME    = SL-8 R/B
OBJECT_ID      = 1988-053B
CENTER_NAME    = EARTH
REF_FRAME      = TEME
TIME_SYSTEM    = UTC
MEAN_ELEMENT_THEORY = SGP/SGP4

EPOCH          = 2026-03-19T07:27:31.369536
MEAN_MOTION    = 14.38922046
ECCENTRICITY   = .00215446
INCLINATION    = 74.0450
RA_OF_ASC_NODE = 94.7303
ARG_OF_PERICENTER = 272.7718
MEAN_ANOMALY   = 98.3894

EPHEMERIS_TYPE = 0
CLASSIFICATION_TYPE = U
NORAD_CAT_ID   = 19257
ELEMENT_SET_NO = 999
REV_AT_EPOCH   = 97798
BSTAR          = .98854909E-4
MEAN_MOTION_DOT = .279E-5
MEAN_MOTION_DDOT = 0

CCSDS_OMM_VERS = 2.0
CREATION_DATE  = 
ORIGINATOR     = 

OBJECT_NAME    = COSMOS 1975
OBJECT_ID      = 1988-093A
CENTER_NAME    = EARTH
REF_FRAME      = TEME
TIME_SYSTEM    = UTC
MEAN_ELEMENT_THEORY = SGP/SGP4

EPOCH          = 2026-03-19T03:41:55.663008
MEAN_MOTION    = 15.28193761
ECCENTRICITY   = .00129379
INCLINATION    = 82.5163
RA_OF_ASC_NODE = 108.1817
ARG_OF_PERICENTER = 132.2930
MEAN_ANOMALY   = 227.9408

EPHEMERIS_TYPE = 0
CLASSIFICATION_TYPE = U
NORAD_CAT_ID   = 19573
ELEMENT_SET_NO = 999
REV_AT_EPOCH   = 2085
BSTAR          = .2033763E-3
MEAN_MOTION_DOT = .5633E-4
MEAN_MOTION_DDOT = 0

CCSDS_OMM_VERS = 2.0
CREATION_DATE  = 
ORIGINATOR     = 

OBJECT_NAME    = SL-14 R/B
OBJECT_ID      = 1988-093B
CENTER_NAME    = EARTH
REF_FRAME      = TEME
TIME_SYSTEM    = UTC
MEAN_ELEMENT_THEORY = SGP/SGP4

EPOCH          = 2026-03-19T19:58:35.103936
MEAN_MOTION    = 14.85668504
ECCENTRICITY   = .0020927
INCLINATION    = 82.5325
RA_OF_ASC_NODE = 32.5229
ARG_OF_PERICENTER = 9.1191
MEAN_ANOMALY   = 51.9770

EPHEMERIS_TYPE = 0
CLASSIFICATION_TYPE = U
NORAD_CAT_ID   = 19574
ELEMENT_SET_NO = 999
REV_AT_EPOCH   = 252
BSTAR          = .55868E-4
MEAN_MOTION_DOT = .51E-5
MEAN_MOTION_DDOT = 0

CCSDS_OMM_VERS = 2.0
CREATION_DATE  = 
ORIGINATOR     = 

OBJECT_NAME    = SL-16 R/B
OBJECT_ID      = 1988-102B
CENTER_NAME    = EARTH
REF_FRAME      = TEME
TIME_SYSTEM    = UTC
MEAN_ELEMENT_THEORY = SGP/SGP4

EPOCH          = 2026-03-19T12:16:12.704160
MEAN_MOTION    = 14.16155997
ECCENTRICITY   = .0014661
INCLINATION    = 70.9989
RA_OF_ASC_NODE = 130.8325
ARG_OF_PERICENTER = 346.2813
MEAN_ANOMALY   = 13.7909

EPHEMERIS_TYPE = 0
CLASSIFICATION_TYPE = U
NORAD_CAT_ID   = 19650
ELEMENT_SET_NO = 999
REV_AT_EPOCH   = 92828
BSTAR          = -.16673E-4
MEAN_MOTION_DOT = -.81E-6
MEAN_MOTION_DDOT = 0

CCSDS_OMM_VERS = 2.0
CREATION_DATE  = 
ORIGINATOR     = 

OBJECT_NAME    = INTERCOSMOS 24
OBJECT_ID      = 1989-080A
CENTER_NAME    = EARTH
REF_FRAME      = TEME
TIME_SYSTEM    = UTC
MEAN_ELEMENT_THEORY = SGP/SGP4

EPOCH          = 2026-03-19T02:18:05.840352
MEAN_MOTION    = 12.59571281
ECCENTRICITY   = .11866737
INCLINATION    = 82.6016
RA_OF_ASC_NODE = 98.2774
ARG_OF_PERICENTER = 270.9650
MEAN_ANOMALY   = 75.6003

EPHEMERIS_TYPE = 0
CLASSIFICATION_TYPE = U
NORAD_CAT_ID   = 20261
ELEMENT_SET_NO = 999
REV_AT_EPOCH   = 66798
BSTAR          = .15880647E-3
MEAN_MOTION_DOT = .534E-5
MEAN_MOTION_DDOT = 0

CCSDS_OMM_VERS = 2.0
CREATION_DATE  = 
ORIGINATOR     = 

OBJECT_NAME    = SL-14 R/B
OBJECT_ID      = 1989-080C
CENTER_NAME    = EARTH
REF_FRAME      = TEME
TIME_SYSTEM    = UTC
MEAN_ELEMENT_THEORY = SGP/SGP4

EPOCH          = 2026-03-19T17:14:21.323040
MEAN_MOTION    = 12.50504355
ECCENTRICITY   = .1230796
INCLINATION    = 82.5966
RA_OF_ASC_NODE = 166.7508
ARG_OF_PERICENTER = 161.8365
MEAN_ANOMALY   = 203.1088

EPHEMERIS_TYPE = 0
CLASSIFICATION_TYPE = U
NORAD_CAT_ID   = 20262
ELEMENT_SET_NO = 999
REV_AT_EPOCH   = 66140
BSTAR          = .11193E-3
MEAN_MOTION_DOT = .395E-5
MEAN_MOTION_DDOT = 0

CCSDS_OMM_VERS = 2.0
CREATION_DATE  = 
ORIGINATOR     = 

OBJECT_NAME    = DELTA 1 R/B
OBJECT_ID      = 1989-089B
CENTER_NAME    = EARTH
REF_FRAME      = TEME
TIME_SYSTEM    = UTC
MEAN_ELEMENT_THEORY = SGP/SGP4

EPOCH          = 2026-03-19T06:39:30.440160
MEAN_MOTION    = 14.50671098
ECCENTRICITY   = .0070721
INCLINATION    = 97.0698
RA_OF_ASC_NODE = 284.1907
ARG_OF_PERICENTER = 92.2696
MEAN_ANOMALY   = 268.6602

EPHEMERIS_TYPE = 0
CLASSIFICATION_TYPE = U
NORAD_CAT_ID   = 20323
ELEMENT_SET_NO = 999
REV_AT_EPOCH   = 89712
BSTAR          = .90517633E-4
MEAN_MOTION_DOT = .332E-5
MEAN_MOTION_DDOT = 0

CCSDS_OMM_VERS = 2.0
CREATION_DATE  = 
ORIGINATOR     = 

OBJECT_NAME    = ARIANE 40 R/B
OBJECT_ID      = 1990-005H
CENTER_NAME    = EARTH
REF_FRAME      = TEME
TIME_SYSTEM    = UTC
MEAN_ELEMENT_THEORY = SGP/SGP4

EPOCH          = 2026-03-19T18:01:03.694080
MEAN_MOTION    = 14.39876682
ECCENTRICITY   = .0010487
INCLINATION    = 98.3061
RA_OF_ASC_NODE = 139.1114
ARG_OF_PERICENTER = 168.0873
MEAN_ANOMALY   = 192.0565

EPHEMERIS_TYPE = 0
CLASSIFICATION_TYPE = U
NORAD_CAT_ID   = 20443
ELEMENT_SET_NO = 999
REV_AT_EPOCH   = 89425
BSTAR          = .7868E-4
MEAN_MOTION_DOT = .205E-5
MEAN_MOTION_DDOT = 0

CCSDS_OMM_VERS = 2.0
CREATION_DATE  = 
ORIGINATOR     = 

OBJECT_NAME    = DELTA 2 R/B(1)
OBJECT_ID      = 1990-008B
CENTER_NAME    = EARTH
REF_FRAME      = TEME
TIME_SYSTEM    = UTC
MEAN_ELEMENT_THEORY = SGP/SGP4

EPOCH          = 2026-03-18T19:16:07.447872
MEAN_MOTION    = 15.57130229
ECCENTRICITY   = .00820237
INCLINATION    = 35.6024
RA_OF_ASC_NODE = 114.9908
ARG_OF_PERICENTER = 343.0931
MEAN_ANOMALY   = 16.7077

EPHEMERIS_TYPE = 0
CLASSIFICATION_TYPE = U
NORAD_CAT_ID   = 20453
ELEMENT_SET_NO = 999
REV_AT_EPOCH   = 92755
BSTAR          = .54577361E-3
MEAN_MOTION_DOT = .48118E-3
MEAN_MOTION_DDOT = 0

